{
  "type": "FeatureCollection",
  "features": [
    {
      "type": "Feature",
      "properties": {
        "norad_id": 32376,
        "name": "COSMO-SKYMED 2",
        "group": "resource",
        "lat": -10.3795704074567,
        "lon": -177.62703459635978,
        "alt_km": 626.8123259077638,
        "timestamp": "2025-12-25T19:00:39.004773+00:00",
        "meta_object_name": "COSMO-SKYMED 2",
        "meta_object_id": "2007-059A",
        "meta_epoch": "2025-12-25T06:05:45.605184",
        "meta_mean_motion": 14.82157646,
        "meta_eccentricity": 0.00013071,
        "meta_inclination": 97.8806,
        "meta_ra_of_asc_node": 180.3894,
        "meta_arg_of_pericenter": 82.7467,
        "meta_mean_anomaly": 277.3894,
        "meta_ephemeris_type": 0,
        "meta_classification_type": "U",
        "meta_norad_cat_id": 32376,
        "meta_element_set_no": 999,
        "meta_rev_at_epoch": 97623,
        "meta_bstar": 7.6477821e-05,
        "meta_mean_motion_dot": 5.57e-06,
        "meta_mean_motion_ddot": 0,
        "tle_line1": "1 32376U 07059A   25359.25400006  .00000557  00000+0  76478-4 0  9995",
        "tle_line2": "2 32376  97.8806 180.3894 0001307  82.7467 277.3894 14.82157646976230"
      },
      "geometry": {
        "type": "Point",
        "coordinates": [
          -177.62703459635978,
          -10.3795704074567
        ]
      }
    },
    {
      "type": "Feature",
      "properties": {
        "norad_id": 32382,
        "name": "RADARSAT-2",
        "group": "resource",
        "lat": 11.077514381737153,
        "lon": 2.4985359891889356,
        "alt_km": 792.9184518581851,
        "timestamp": "2025-12-25T19:00:39.004783+00:00",
        "meta_object_name": "RADARSAT-2",
        "meta_object_id": "2007-061A",
        "meta_epoch": "2025-12-25T07:12:12.624768",
        "meta_mean_motion": 14.29985064,
        "meta_eccentricity": 0.00011285,
        "meta_inclination": 98.5796,
        "meta_ra_of_asc_node": 3.7075,
        "meta_arg_of_pericenter": 85.2539,
        "meta_mean_anomaly": 274.8772,
        "meta_ephemeris_type": 0,
        "meta_classification_type": "U",
        "meta_norad_cat_id": 32382,
        "meta_element_set_no": 999,
        "meta_rev_at_epoch": 94110,
        "meta_bstar": 5.8898939e-05,
        "meta_mean_motion_dot": 1.08e-06,
        "meta_mean_motion_ddot": 0,
        "tle_line1": "1 32382U 07061A   25359.30014612  .00000108  00000+0  58899-4 0  9994",
        "tle_line2": "2 32382  98.5796   3.7075 0001128  85.2539 274.8772 14.29985064941100"
      },
      "geometry": {
        "type": "Point",
        "coordinates": [
          2.4985359891889356,
          11.077514381737153
        ]
      }
    },
    {
      "type": "Feature",
      "properties": {
        "norad_id": 32783,
        "name": "CARTOSAT-2A",
        "group": "resource",
        "lat": -21.07240601311761,
        "lon": 52.23049455166097,
        "alt_km": 630.6212624954669,
        "timestamp": "2025-12-25T19:00:39.004793+00:00",
        "meta_object_name": "CARTOSAT-2A",
        "meta_object_id": "2008-021A",
        "meta_epoch": "2025-12-25T07:44:25.290816",
        "meta_mean_motion": 14.78955596,
        "meta_eccentricity": 0.00109289,
        "meta_inclination": 97.7908,
        "meta_ra_of_asc_node": 48.7517,
        "meta_arg_of_pericenter": 322.7819,
        "meta_mean_anomaly": 37.2634,
        "meta_ephemeris_type": 0,
        "meta_classification_type": "U",
        "meta_norad_cat_id": 32783,
        "meta_element_set_no": 999,
        "meta_rev_at_epoch": 95310,
        "meta_bstar": 0.0001851712,
        "meta_mean_motion_dot": 1.317e-05,
        "meta_mean_motion_ddot": 0,
        "tle_line1": "1 32783U 08021A   25359.32251494  .00001317  00000+0  18517-3 0  9994",
        "tle_line2": "2 32783  97.7908  48.7517 0010928 322.7819  37.2634 14.78955596953101"
      },
      "geometry": {
        "type": "Point",
        "coordinates": [
          52.23049455166097,
          -21.07240601311761
        ]
      }
    },
    {
      "type": "Feature",
      "properties": {
        "norad_id": 33320,
        "name": "HUANJING 1A (HJ-1A)",
        "group": "resource",
        "lat": 53.081610899604165,
        "lon": -22.766289529014763,
        "alt_km": 607.0525537981202,
        "timestamp": "2025-12-25T19:00:39.004804+00:00",
        "meta_object_name": "HUANJING 1A (HJ-1A)",
        "meta_object_id": "2008-041A",
        "meta_epoch": "2025-12-25T07:26:16.751040",
        "meta_mean_motion": 14.83431632,
        "meta_eccentricity": 0.00192193,
        "meta_inclination": 97.655,
        "meta_ra_of_asc_node": 347.0838,
        "meta_arg_of_pericenter": 354.2233,
        "meta_mean_anomaly": 5.8757,
        "meta_ephemeris_type": 0,
        "meta_classification_type": "U",
        "meta_norad_cat_id": 33320,
        "meta_element_set_no": 999,
        "meta_rev_at_epoch": 93262,
        "meta_bstar": 0.00019028127,
        "meta_mean_motion_dot": 1.516e-05,
        "meta_mean_motion_ddot": 0,
        "tle_line1": "1 33320U 08041A   25359.30991610  .00001516  00000+0  19028-3 0  9992",
        "tle_line2": "2 33320  97.6550 347.0838 0019219 354.2233   5.8757 14.83431632932621"
      },
      "geometry": {
        "type": "Point",
        "coordinates": [
          -22.766289529014763,
          53.081610899604165
        ]
      }
    },
    {
      "type": "Feature",
      "properties": {
        "norad_id": 33321,
        "name": "HUANJING 1B (HJ-1B)",
        "group": "resource",
        "lat": -66.30703031588125,
        "lon": 153.3954339007129,
        "alt_km": 649.6563632638972,
        "timestamp": "2025-12-25T19:00:39.004815+00:00",
        "meta_object_name": "HUANJING 1B (HJ-1B)",
        "meta_object_id": "2008-041B",
        "meta_epoch": "2025-12-25T06:33:42.450336",
        "meta_mean_motion": 14.82854674,
        "meta_eccentricity": 0.00377199,
        "meta_inclination": 97.6407,
        "meta_ra_of_asc_node": 350.7128,
        "meta_arg_of_pericenter": 36.0341,
        "meta_mean_anomaly": 324.3405,
        "meta_ephemeris_type": 0,
        "meta_classification_type": "U",
        "meta_norad_cat_id": 33321,
        "meta_element_set_no": 999,
        "meta_rev_at_epoch": 93263,
        "meta_bstar": 0.00024306087,
        "meta_mean_motion_dot": 1.941e-05,
        "meta_mean_motion_ddot": 0,
        "tle_line1": "1 33321U 08041B   25359.27340799  .00001941  00000+0  24306-3 0  9992",
        "tle_line2": "2 33321  97.6407 350.7128 0037719  36.0341 324.3405 14.82854674932630"
      },
      "geometry": {
        "type": "Point",
        "coordinates": [
          153.3954339007129,
          -66.30703031588125
        ]
      }
    },
    {
      "type": "Feature",
      "properties": {
        "norad_id": 33331,
        "name": "GEOEYE 1",
        "group": "resource",
        "lat": 73.27233604823711,
        "lon": -80.71564239631488,
        "alt_km": 672.1512213608157,
        "timestamp": "2025-12-25T19:00:39.004825+00:00",
        "meta_object_name": "GEOEYE 1",
        "meta_object_id": "2008-042A",
        "meta_epoch": "2025-12-25T05:25:06.254976",
        "meta_mean_motion": 14.64716592,
        "meta_eccentricity": 0.00030071,
        "meta_inclination": 98.1237,
        "meta_ra_of_asc_node": 70.3484,
        "meta_arg_of_pericenter": 230.7717,
        "meta_mean_anomaly": 129.322,
        "meta_ephemeris_type": 0,
        "meta_classification_type": "U",
        "meta_norad_cat_id": 33331,
        "meta_element_set_no": 999,
        "meta_rev_at_epoch": 92468,
        "meta_bstar": 0.00012347117,
        "meta_mean_motion_dot": 6.1e-06,
        "meta_mean_motion_ddot": 0,
        "tle_line1": "1 33331U 08042A   25359.22576684  .00000610  00000+0  12347-3 0  9997",
        "tle_line2": "2 33331  98.1237  70.3484 0003007 230.7717 129.3220 14.64716592924681"
      },
      "geometry": {
        "type": "Point",
        "coordinates": [
          -80.71564239631488,
          73.27233604823711
        ]
      }
    },
    {
      "type": "Feature",
      "properties": {
        "norad_id": 33396,
        "name": "THEOS",
        "group": "resource",
        "lat": 27.234838768560316,
        "lon": 53.036426707258826,
        "alt_km": 823.4932916333291,
        "timestamp": "2025-12-25T19:00:39.004836+00:00",
        "meta_object_name": "THEOS",
        "meta_object_id": "2008-049A",
        "meta_epoch": "2025-12-25T07:02:40.478784",
        "meta_mean_motion": 14.20099629,
        "meta_eccentricity": 0.00012002,
        "meta_inclination": 98.5844,
        "meta_ra_of_asc_node": 57.0118,
        "meta_arg_of_pericenter": 93.2449,
        "meta_mean_anomaly": 266.8865,
        "meta_ephemeris_type": 0,
        "meta_classification_type": "U",
        "meta_norad_cat_id": 33396,
        "meta_element_set_no": 999,
        "meta_rev_at_epoch": 89328,
        "meta_bstar": 0.00016749416,
        "meta_mean_motion_dot": 3.14e-06,
        "meta_mean_motion_ddot": 0,
        "tle_line1": "1 33396U 08049A   25359.29352406  .00000314  00000+0  16749-3 0  9997",
        "tle_line2": "2 33396  98.5844  57.0118 0001200  93.2449 266.8865 14.20099629893283"
      },
      "geometry": {
        "type": "Point",
        "coordinates": [
          53.036426707258826,
          27.234838768560316
        ]
      }
    }
  ]
}